OBJECT_NAME,OBJECT_ID,EPOCH,MEAN_MOTION,ECCENTRICITY,INCLINATION,RA_OF_ASC_NODE,ARG_OF_PERICENTER,MEAN_ANOMALY,EPHEMERIS_TYPE,CLASSIFICATION_TYPE,NORAD_CAT_ID,ELEMENT_SET_NO,REV_AT_EPOCH,BSTAR,MEAN_MOTION_DOT,MEAN_MOTION_DDOT
STARLINK-37682,2026-114AD,2026-06-15T03:42:23.577120,15.80940252,.0001415,53.1568,212.2041,50.6767,309.4381,0,U,69209,999,445,.10318E-2,.208589E-2,0
STARLINK-37402,2026-114AE,2026-06-15T03:41:18.921408,15.80949578,.0002025,53.1569,212.1994,33.9620,326.1532,0,U,69210,999,445,.12318E-2,.250492E-2,0
STARLINK-37613,2026-115A,2026-06-15T04:00:01.998720,15.49186153,.0001164,97.2834,183.2630,92.1154,107.2268,0,U,69211,999,436,.65103E-4,.3452E-4,0
STARLINK-37713,2026-115B,2026-06-15T04:00:01.998720,15.49117948,.0001832,97.2845,183.3861,90.6924,43.9276,0,U,69212,999,436,-.16587E-4,-.99E-5,0
STARLINK-37716,2026-115C,2026-06-15T04:00:01.998720,15.54276090,.0001734,97.2833,183.4428,92.6210,162.8011,0,U,69213,999,436,-.34946E-1,-.2035782E-1,0
STARLINK-37620,2026-115D,2026-06-15T03:29:07.046016,15.49199280,.0000558,97.2835,183.2051,109.8957,250.2355,0,U,69214,999,434,.6041E-3,.32913E-3,0
STARLINK-37700,2026-115E,2026-06-15T02:50:49.511040,15.49216646,.0001199,97.2834,183.0894,80.7641,279.3746,0,U,69215,999,433,.67058E-3,.36585E-3,0
STARLINK-37766,2026-115F,2026-06-15T04:00:01.998720,15.61017690,.0001248,97.2843,183.4763,96.0469,239.9807,0,U,69216,999,436,-.34447E-1,-.2514207E-1,0
STARLINK-37763,2026-115G,2026-06-15T04:00:01.998720,15.54393393,.0001494,97.2842,183.4340,75.5683,164.3952,0,U,69217,999,436,-.15837E-1,-.939102E-2,0
STARLINK-37724,2026-115H,2026-06-15T04:00:01.998720,15.63310194,.0001288,97.2845,183.5027,65.9896,340.8387,0,U,69218,999,436,-.3303E-1,-.2620057E-1,0
STARLINK-37758,2026-115J,2026-06-15T04:00:01.998720,15.63564306,.0001464,97.2842,183.5101,69.3161,355.7799,0,U,69219,999,436,-.31741E-1,-.2553727E-1,0
STARLINK-37201,2026-115K,2026-06-15T04:00:01.998720,15.63443792,.0001443,97.2840,183.5093,67.5415,352.3715,0,U,69220,999,436,-.32928E-1,-.2625145E-1,0
STARLINK-37728,2026-115L,2026-06-15T04:00:01.998720,15.61699033,.0001145,97.2845,183.5098,52.1353,359.9371,0,U,69221,999,436,-.33957E-1,-.2540695E-1,0
STARLINK-37760,2026-115M,2026-06-15T04:00:01.998720,15.65026774,.0001337,97.2839,183.5196,56.1898,19.5125,0,U,69222,999,436,-.30476E-1,-.2592699E-1,0
STARLINK-37759,2026-115N,2026-06-15T04:00:01.998720,15.53340052,.0001792,97.2839,183.4409,86.3014,168.8342,0,U,69223,999,436,-.40116E-1,-.2232495E-1,0
STARLINK-37725,2026-115P,2026-06-15T04:00:01.998720,15.52760787,.0001688,97.2837,183.4470,87.7730,181.2858,0,U,69224,999,436,-.42024E-1,-.2282942E-1,0
STARLINK-37770,2026-115Q,2026-06-15T04:00:01.998720,15.66025934,.0001441,97.2842,183.5283,62.0998,35.9640,0,U,69225,999,436,-.28997E-1,-.2571505E-1,0
STARLINK-37736,2026-115R,2026-06-15T04:00:01.998720,15.64877932,.0001339,97.2840,183.5155,46.6084,30.5586,0,U,69226,999,436,-.2959E-1,-.2514243E-1,0
STARLINK-37737,2026-115S,2026-06-15T04:00:01.998720,15.66560085,.0001753,97.2840,183.5371,66.5927,51.7846,0,U,69227,999,438,-.27492E-1,-.250203E-1,0
STARLINK-37618,2026-115T,2026-06-15T04:00:01.998720,15.50579059,.0002462,97.2838,183.4387,76.4045,178.0880,0,U,69228,999,436,-.38742E-1,-.1981385E-1,0
STARLINK-37679,2026-115U,2026-06-15T04:00:01.998720,15.52049465,.0002031,97.2839,183.4451,96.8067,170.9769,0,U,69229,999,436,-.66888E-1,-.3489969E-1,0
STARLINK-37746,2026-115V,2026-06-15T04:00:01.998720,15.49126333,.0000715,97.2841,183.4244,116.7934,107.2926,0,U,69230,999,436,-.18656E-3,-.10201E-3,0
STARLINK-37557,2026-115W,2026-06-15T04:00:01.998720,15.49184650,.0001488,97.2837,183.3677,99.2103,346.0131,0,U,69231,999,436,.26551E-4,.1354E-4,0
STARLINK-37745,2026-115X,2026-06-15T04:00:01.998720,15.67951506,.0002027,97.2836,183.5526,85.5675,78.4998,0,U,69232,999,436,-.2719E-1,-.2603779E-1,0
STARLINK-37739,2026-115Y,2026-06-15T04:00:01.998720,15.50883501,.000134,97.2841,183.4226,81.1700,129.2218,0,U,69233,999,436,-.15078E-1,-.799525E-2,0
STARLINK-37755,2026-115Z,2026-06-15T02:22:29.826048,15.75211508,.0001055,97.2834,183.4231,55.6563,304.4801,0,U,69234,999,435,.68647E-3,.103608E-2,0
STARLINK-37665,2026-117A,2026-06-15T03:51:20.116800,15.82045043,.0000747,53.1583,253.7956,112.7525,247.3578,0,U,69238,999,265,.10851E-2,.231559E-2,0
STARLINK-37558,2026-117B,2026-06-15T03:49:57.833760,15.82064605,.0001024,53.1581,253.7886,133.9346,226.1762,0,U,69239,999,265,.11421E-2,.244347E-2,0
STARLINK-37680,2026-117C,2026-06-15T03:47:53.586240,15.82079125,.0001074,53.1585,253.7794,98.6420,261.4725,0,U,69240,999,265,.11929E-2,.255761E-2,0
STARLINK-37742,2026-117D,2026-06-15T03:45:19.427904,15.82069488,.0000908,53.1587,253.7676,90.3856,269.7271,0,U,69241,999,265,.11239E-2,.240383E-2,0
